{
  "type": "FeatureCollection",
  "features": [
    {
      "type": "Feature",
      "properties": {
        "norad_id": 30264,
        "name": "FENGYUN 1C DEB",
        "group": "fengyun-1c-debris",
        "lat": 65.77129355965141,
        "lon": 16.771423054246167,
        "alt_km": 907.2746315312561,
        "timestamp": "2025-12-08T03:50:07.272213+00:00",
        "meta_object_name": "FENGYUN 1C DEB",
        "meta_object_id": "1999-025XZ",
        "meta_epoch": "2025-12-07T02:04:22.076832",
        "meta_mean_motion": 14.07604386,
        "meta_eccentricity": 0.01067937,
        "meta_inclination": 98.97,
        "meta_ra_of_asc_node": 36.2527,
        "meta_arg_of_pericenter": 303.3254,
        "meta_mean_anomaly": 86.6054,
        "meta_ephemeris_type": 0,
        "meta_classification_type": "U",
        "meta_norad_cat_id": 30264,
        "meta_element_set_no": 999,
        "meta_rev_at_epoch": 96478,
        "meta_bstar": 0.0019888574,
        "meta_mean_motion_dot": 3.493e-05,
        "meta_mean_motion_ddot": 0,
        "tle_line1": "1 30264U 99025XZ  25341.08636663  .00003493  00000+0  19889-2 0  9998",
        "tle_line2": "2 30264  98.9700  36.2527 0106793 303.3254  86.6054 14.07604386964783"
      },
      "geometry": {
        "type": "Point",
        "coordinates": [
          16.771423054246167,
          65.77129355965141
        ]
      }
    },
    {
      "type": "Feature",
      "properties": {
        "norad_id": 30265,
        "name": "FENGYUN 1C DEB",
        "group": "fengyun-1c-debris",
        "lat": -32.52316232955366,
        "lon": 96.66901462697238,
        "alt_km": 694.7242699159478,
        "timestamp": "2025-12-08T03:50:07.272223+00:00",
        "meta_object_name": "FENGYUN 1C DEB",
        "meta_object_id": "1999-025YA",
        "meta_epoch": "2025-12-02T06:30:17.309088",
        "meta_mean_motion": 14.58254763,
        "meta_eccentricity": 0.0028484,
        "meta_inclination": 98.6642,
        "meta_ra_of_asc_node": 84.9553,
        "meta_arg_of_pericenter": 46.6011,
        "meta_mean_anomaly": 342.9342,
        "meta_ephemeris_type": 0,
        "meta_classification_type": "U",
        "meta_norad_cat_id": 30265,
        "meta_element_set_no": 999,
        "meta_rev_at_epoch": 98249,
        "meta_bstar": 0.0027427,
        "meta_mean_motion_dot": 0.00012711,
        "meta_mean_motion_ddot": 0,
        "tle_line1": "1 30265U 99025YA  25336.27103367  .00012711  00000+0  27427-2 0  9994",
        "tle_line2": "2 30265  98.6642  84.9553 0028484  46.6011 342.9342 14.58254763982495"
      },
      "geometry": {
        "type": "Point",
        "coordinates": [
          96.66901462697238,
          -32.52316232955366
        ]
      }
    },
    {
      "type": "Feature",
      "properties": {
        "norad_id": 30266,
        "name": "FENGYUN 1C DEB",
        "group": "fengyun-1c-debris",
        "lat": -23.224672801565696,
        "lon": 50.228073849463996,
        "alt_km": 859.9777648205682,
        "timestamp": "2025-12-08T03:50:07.272233+00:00",
        "meta_object_name": "FENGYUN 1C DEB",
        "meta_object_id": "1999-025YB",
        "meta_epoch": "2025-12-07T02:37:39.950688",
        "meta_mean_motion": 14.15042906,
        "meta_eccentricity": 0.00831397,
        "meta_inclination": 99.0425,
        "meta_ra_of_asc_node": 45.2456,
        "meta_arg_of_pericenter": 81.9973,
        "meta_mean_anomaly": 307.9928,
        "meta_ephemeris_type": 0,
        "meta_classification_type": "U",
        "meta_norad_cat_id": 30266,
        "meta_element_set_no": 999,
        "meta_rev_at_epoch": 96710,
        "meta_bstar": 0.0020844272,
        "meta_mean_motion_dot": 4.132e-05,
        "meta_mean_motion_ddot": 0,
        "tle_line1": "1 30266U 99025YB  25341.10949017  .00004132  00000+0  20844-2 0  9997",
        "tle_line2": "2 30266  99.0425  45.2456 0083139  81.9973 307.9928 14.15042906967108"
      },
      "geometry": {
        "type": "Point",
        "coordinates": [
          50.228073849463996,
          -23.224672801565696
        ]
      }
    },
    {
      "type": "Feature",
      "properties": {
        "norad_id": 30267,
        "name": "FENGYUN 1C DEB",
        "group": "fengyun-1c-debris",
        "lat": 67.2195838735366,
        "lon": -104.92904965530892,
        "alt_km": 841.3103253007694,
        "timestamp": "2025-12-08T03:50:07.272242+00:00",
        "meta_object_name": "FENGYUN 1C DEB",
        "meta_object_id": "1999-025YC",
        "meta_epoch": "2025-12-07T03:41:40.263072",
        "meta_mean_motion": 14.23547791,
        "meta_eccentricity": 0.00586521,
        "meta_inclination": 98.8497,
        "meta_ra_of_asc_node": 52.2834,
        "meta_arg_of_pericenter": 259.118,
        "meta_mean_anomaly": 100.3394,
        "meta_ephemeris_type": 0,
        "meta_classification_type": "U",
        "meta_norad_cat_id": 30267,
        "meta_element_set_no": 999,
        "meta_rev_at_epoch": 97215,
        "meta_bstar": 0.0024434804,
        "meta_mean_motion_dot": 5.619e-05,
        "meta_mean_motion_ddot": 0,
        "tle_line1": "1 30267U 99025YC  25341.15393823  .00005619  00000+0  24435-2 0  9992",
        "tle_line2": "2 30267  98.8497  52.2834 0058652 259.1180 100.3394 14.23547791972158"
      },
      "geometry": {
        "type": "Point",
        "coordinates": [
          -104.92904965530892,
          67.2195838735366
        ]
      }
    },
    {
      "type": "Feature",
      "properties": {
        "norad_id": 30270,
        "name": "FENGYUN 1C DEB",
        "group": "fengyun-1c-debris",
        "lat": -55.708972643764525,
        "lon": 9.002396788310103,
        "alt_km": 865.5016318334792,
        "timestamp": "2025-12-08T03:50:07.272252+00:00",
        "meta_object_name": "FENGYUN 1C DEB",
        "meta_object_id": "1999-025YF",
        "meta_epoch": "2025-12-07T07:45:29.509344",
        "meta_mean_motion": 14.11267399,
        "meta_eccentricity": 0.0007158,
        "meta_inclination": 98.7024,
        "meta_ra_of_asc_node": 355.2122,
        "meta_arg_of_pericenter": 173.8666,
        "meta_mean_anomaly": 201.6799,
        "meta_ephemeris_type": 0,
        "meta_classification_type": "U",
        "meta_norad_cat_id": 30270,
        "meta_element_set_no": 999,
        "meta_rev_at_epoch": 97285,
        "meta_bstar": 0.00022735418,
        "meta_mean_motion_dot": 3.68e-06,
        "meta_mean_motion_ddot": 0,
        "tle_line1": "1 30270U 99025YF  25341.32325821  .00000368  00000+0  22735-3 0  9996",
        "tle_line2": "2 30270  98.7024 355.2122 0007158 173.8666 201.6799 14.11267399972850"
      },
      "geometry": {
        "type": "Point",
        "coordinates": [
          9.002396788310103,
          -55.708972643764525
        ]
      }
    },
    {
      "type": "Feature",
      "properties": {
        "norad_id": 30272,
        "name": "FENGYUN 1C DEB",
        "group": "fengyun-1c-debris",
        "lat": 60.189833359508064,
        "lon": -114.25729115264186,
        "alt_km": 800.5396845086161,
        "timestamp": "2025-12-08T03:50:07.272262+00:00",
        "meta_object_name": "FENGYUN 1C DEB",
        "meta_object_id": "1999-025YH",
        "meta_epoch": "2025-12-07T03:30:55.312992",
        "meta_mean_motion": 14.14673979,
        "meta_eccentricity": 0.00512215,
        "meta_inclination": 98.9012,
        "meta_ra_of_asc_node": 48.8582,
        "meta_arg_of_pericenter": 119.4516,
        "meta_mean_anomaly": 241.1781,
        "meta_ephemeris_type": 0,
        "meta_classification_type": "U",
        "meta_norad_cat_id": 30272,
        "meta_element_set_no": 999,
        "meta_rev_at_epoch": 96777,
        "meta_bstar": 0.0019371958,
        "meta_mean_motion_dot": 3.731e-05,
        "meta_mean_motion_ddot": 0,
        "tle_line1": "1 30272U 99025YH  25341.14647353  .00003731  00000+0  19372-2 0  9994",
        "tle_line2": "2 30272  98.9012  48.8582 0051221 119.4516 241.1781 14.14673979967779"
      },
      "geometry": {
        "type": "Point",
        "coordinates": [
          -114.25729115264186,
          60.189833359508064
        ]
      }
    },
    {
      "type": "Feature",
      "properties": {
        "norad_id": 30273,
        "name": "FENGYUN 1C DEB",
        "group": "fengyun-1c-debris",
        "lat": -64.21160748849697,
        "lon": 15.648064667292251,
        "alt_km": 854.4403010935557,
        "timestamp": "2025-12-08T03:50:07.272272+00:00",
        "meta_object_name": "FENGYUN 1C DEB",
        "meta_object_id": "1999-025YJ",
        "meta_epoch": "2025-12-07T07:40:34.449888",
        "meta_mean_motion": 14.02648204,
        "meta_eccentricity": 0.00605058,
        "meta_inclination": 98.841,
        "meta_ra_of_asc_node": 356.0416,
        "meta_arg_of_pericenter": 264.7526,
        "meta_mean_anomaly": 110.1721,
        "meta_ephemeris_type": 0,
        "meta_classification_type": "U",
        "meta_norad_cat_id": 30273,
        "meta_element_set_no": 999,
        "meta_rev_at_epoch": 96453,
        "meta_bstar": 0.00091194028,
        "meta_mean_motion_dot": 1.386e-05,
        "meta_mean_motion_ddot": 0,
        "tle_line1": "1 30273U 99025YJ  25341.31984317  .00001386  00000+0  91194-3 0  9995",
        "tle_line2": "2 30273  98.8410 356.0416 0060505 264.7526 110.1721 14.02648204964531"
      },
      "geometry": {
        "type": "Point",
        "coordinates": [
          15.648064667292251,
          -64.21160748849697
        ]
      }
    }
  ]
}